NORAD_CAT_ID,OBJECT_NAME,OBJECT_TYPE,EPOCH,MEAN_MOTION,ECCENTRICITY,INCLINATION,RA_OF_ASC_NODE,ARG_OF_PERICENTER,MEAN_ANOMALY,BSTAR,MEAN_MOTION_DOT,MEAN_MOTION_DDOT,TLE_LINE0,TLE_LINE1,TLE_LINE2,SEMIMAJOR_AXIS,PERIOD,APOGEE,PERIGEE,DECAYED
54161.0,STARLINK-5269,PAYLOAD,2023-11-22 19:19:08,15.08849299,0.0001332,53.2163,175.6357,102.8194,257.2947,0.00010627,1.404e-05,0.0,0 STARLINK-5269,1 54161U 22141E   23326.80495995  .00001404  00000-0  10627-3 0  9990,2 54161  53.2163 175.6357 0001332 102.8194 257.2947 15.08849299 59226,6917.852,95.437,540.638,538.796,0.0
54161.0,STARLINK-5269,PAYLOAD,2023-11-23 19:09:56,15.08828003,0.0001325,53.2168,171.1765,99.3796,260.7346,-7.1946e-05,-1.432e-05,0.0,0 STARLINK-5269,1 54161U 22141E   23327.79857558 -.00001432  00000-0 -71946-4 0  9991,2 54161  53.2168 171.1765 0001325  99.3796 260.7346 15.08828003 59373,6917.917,95.438,540.699,538.865,0.0
54161.0,STARLINK-5269,PAYLOAD,2023-11-23 20:45:20,15.08828373,0.0001241,53.2164,170.8799,84.2391,275.8743,-0.00011829,-2.169e-05,0.0,0 STARLINK-5269,1 54161U 22141E   23327.86481612 -.00002169  00000-0 -11829-3 0  9994,2 54161  53.2164 170.8799 0001241  84.2391 275.8743 15.08828373 59382,6917.916,95.438,540.639,538.922,0.0
54161.0,STARLINK-5269,PAYLOAD,2023-11-23 23:56:06,15.0883259,0.0001079,53.2164,170.2859,90.9951,269.1164,-3.4922e-05,-8.43e-06,0.0,0 STARLINK-5269,1 54161U 22141E   23327.99729811 -.00000843  00000-0 -34922-4 0  9991,2 54161  53.2164 170.2859 0001079  90.9951 269.1164 15.08832590 59400,6917.903,95.438,540.514,539.022,0.0
54161.0,STARLINK-5269,PAYLOAD,2023-11-24 20:36:07,15.08825162,0.0001252,53.2166,166.4203,97.1214,262.992,0.00017403,2.482e-05,0.0,0 STARLINK-5269,1 54161U 22141E   23328.85842259  .00002482  00000-0  17403-3 0  9992,2 54161  53.2166 166.4203 0001252  97.1214 262.9920 15.08825162 59538,6917.926,95.438,540.657,538.925,0.0
54161.0,STARLINK-5269,PAYLOAD,2023-11-25 20:26:54,15.08851219,0.0001189,53.2152,161.9591,82.5981,277.5146,0.00040332,6.139e-05,0.0,0 STARLINK-5269,1 54161U 22141E   23329.85201467  .00006139  00000-0  40332-3 0  9993,2 54161  53.2152 161.9591 0001189  82.5981 277.5146 15.08851219 59681,6917.846,95.437,540.534,538.889,0.0
54161.0,STARLINK-5269,PAYLOAD,2023-11-26 12:20:45,15.08848731,0.0001257,53.2152,158.9878,79.719,280.3944,0.00024797,3.662e-05,0.0,0 STARLINK-5269,1 54161U 22141E   23330.51441383  .00003662  00000-0  24797-3 0  9996,2 54161  53.2152 158.9878 0001257  79.7190 280.3944 15.08848731 59785,6917.854,95.437,540.588,538.849,0.0
54161.0,STARLINK-5269,PAYLOAD,2023-11-26 18:42:18,15.08835742,0.0001583,53.216,157.7971,62.9634,297.152,0.00045403,6.944e-05,0.0,0 STARLINK-5269,1 54161U 22141E   23330.77938074  .00006944  00000-0  45403-3 0  9995,2 54161  53.2160 157.7971 0001583  62.9634 297.1520 15.08835742 59823,6917.893,95.438,540.854,538.663,0.0
54161.0,STARLINK-5269,PAYLOAD,2023-11-26 20:17:41,15.08837881,0.0001584,53.2161,157.4999,62.8253,297.2901,0.00034604,5.223e-05,0.0,0 STARLINK-5269,1 54161U 22141E   23330.84561911  .00005223  00000-0  34604-3 0  9995,2 54161  53.2161 157.4999 0001584  62.8253 297.2901 15.08837881 59839,6917.887,95.438,540.848,538.656,0.0
54161.0,STARLINK-5269,PAYLOAD,2023-11-27 12:11:32,15.08839682,0.0001713,53.2162,154.5279,63.2513,296.8654,-8.9092e-05,-1.706e-05,0.0,0 STARLINK-5269,1 54161U 22141E   23331.50801794 -.00001706  00000-0 -89092-4 0  9991,2 54161  53.2162 154.5279 0001713  63.2513 296.8654 15.08839682 59939,6917.881,95.438,540.931,538.561,0.0
54161.0,STARLINK-5269,PAYLOAD,2023-11-27 18:33:05,15.08837742,0.0001647,53.2175,153.3374,65.2951,294.8212,-7.2397e-05,-1.44e-05,0.0,0 STARLINK-5269,1 54161U 22141E   23331.77298469 -.00001440  00000-0 -72397-4 0  9994,2 54161  53.2175 153.3374 0001647  65.2951 294.8212 15.08837742 59977,6917.887,95.438,540.892,538.613,0.0
54161.0,STARLINK-5269,PAYLOAD,2023-11-28 12:02:19,15.08840292,0.00015,53.2177,150.0661,74.1449,285.9708,5.0091e-05,5.09e-06,0.0,0 STARLINK-5269,1 54161U 22141E   23332.50161814  .00000509  00000-0  50091-4 0  9999,2 54161  53.2177 150.0661 0001500  74.1449 285.9708 15.08840292 60080,6917.879,95.438,540.782,538.707,0.0
54161.0,STARLINK-5269,PAYLOAD,2023-11-28 18:23:52,15.08845469,0.0001327,53.2173,148.8747,87.8125,272.3019,4.2543e-05,3.89e-06,0.0,0 STARLINK-5269,1 54161U 22141E   23332.76657464  .00000389  00000-0  42543-4 0  9997,2 54161  53.2173 148.8747 0001327  87.8125 272.3019 15.08845469 60126,6917.864,95.437,540.647,538.811,0.0
54161.0,STARLINK-5269,PAYLOAD,2023-11-29 15:03:52,15.08841258,0.0001365,53.2178,145.0091,102.3346,257.7799,0.00014106,1.958e-05,0.0,0 STARLINK-5269,1 54161U 22141E   23333.62769488  .00001958  00000-0  14106-3 0  9999,2 54161  53.2178 145.0091 0001365 102.3346 257.7799 15.08841258 60250,6917.877,95.437,540.686,538.797,0.0
54161.0,STARLINK-5269,PAYLOAD,2023-11-29 18:14:39,15.08842859,0.0001353,53.2178,144.4145,99.0335,261.081,0.00015378,2.161e-05,0.0,0 STARLINK-5269,1 54161U 22141E   23333.76017416  .00002161  00000-0  15378-3 0  9990,2 54161  53.2178 144.4145 0001353  99.0335 261.0810 15.08842859 60272,6917.872,95.437,540.673,538.801,0.0
54161.0,STARLINK-5269,PAYLOAD,2023-11-30 18:05:26,15.08841902,0.0001435,53.2181,139.955,104.0415,256.0737,4.8415e-05,4.83e-06,0.0,0 STARLINK-5269,1 54161U 22141E   23334.75377730  .00000483  00000-0  48415-4 0  9992,2 54161  53.2181 139.9550 0001435 104.0415 256.0737 15.08841902 60429,6917.875,95.437,540.732,538.747,0.0
54161.0,STARLINK-5269,PAYLOAD,2023-12-01 16:20:50,15.08843266,0.000143,53.2183,135.7929,95.7767,264.3388,5.7232e-05,6.23e-06,0.0,0 STARLINK-5269,1 54161U 22141E   23335.68113560  .00000623  00000-0  57232-4 0  9997,2 54161  53.2183 135.7929 0001430  95.7767 264.3388 15.08843266 60560,6917.87,95.437,540.725,538.746,0.0
54161.0,STARLINK-5269,PAYLOAD,2023-12-02 14:36:14,15.08840313,0.0001395,53.2181,131.6287,90.0077,270.1075,7.2686e-05,8.69e-06,0.0,0 STARLINK-5269,1 54161U 22141E   23336.60849623  .00000869  00000-0  72686-4 0  9998,2 54161  53.2181 131.6287 0001395  90.0077 270.1075 15.08840313 60706,6917.879,95.438,540.709,538.779,0.0
54161.0,STARLINK-5269,PAYLOAD,2023-12-02 16:11:37,15.08840892,0.0001396,53.2181,131.3314,89.19,270.9252,7.6277e-05,9.26e-06,0.0,0 STARLINK-5269,1 54161U 22141E   23336.67473581  .00000926  00000-0  76277-4 0  9995,2 54161  53.2181 131.3314 0001396  89.1900 270.9252 15.08840892 60717,6917.878,95.437,540.708,538.777,0.0
54161.0,STARLINK-5269,PAYLOAD,2023-12-03 09:40:52,15.08835511,0.0001383,53.2185,128.0669,90.8197,269.2954,1.8491e-06,-2.58e-06,0.0,0 STARLINK-5269,1 54161U 22141E   23337.40338382 -.00000258  00000-0  18491-5 0  9990,2 54161  53.2185 128.0669 0001383  90.8197 269.2954 15.08835511 60824,6917.894,95.438,540.716,538.802,0.0
54161.0,STARLINK-5269,PAYLOAD,2023-12-03 14:27:02,15.08828173,0.0001448,53.2189,127.1669,92.2787,267.8371,-6.3803e-05,-1.303e-05,0.0,0 STARLINK-5269,1 54161U 22141E   23337.60211182 -.00001303  00000-0 -63803-4 0  9999,2 54161  53.2189 127.1669 0001448  92.2787 267.8371 15.08828173 60857,6917.917,95.438,540.783,538.78,0.0
54161.0,STARLINK-5269,PAYLOAD,2023-12-03 17:37:48,15.08832279,0.0001669,53.2191,126.5721,90.9055,269.2128,-0.00010128,-1.899e-05,0.0,0 STARLINK-5269,1 54161U 22141E   23337.73459176 -.00001899  00000-0 -10128-3 0  9991,2 54161  53.2191 126.5721 0001669  90.9055 269.2128 15.08832279 60870,6917.904,95.438,540.924,538.614,0.0
54161.0,STARLINK-5269,PAYLOAD,2023-12-04 09:31:40,15.08844776,0.0001409,53.2175,123.5962,93.337,266.7783,-0.00017028,-2.997e-05,0.0,0 STARLINK-5269,1 54161U 22141E   23338.39699171 -.00002997  00000-0 -17028-3 0  9991,2 54161  53.2175 123.5962 0001409  93.3370 266.7783 15.08844776 60970,6917.866,95.437,540.706,538.756,0.0
54161.0,STARLINK-5269,PAYLOAD,2023-12-04 19:03:58,15.08801599,0.0001645,53.2176,121.814,100.9505,259.1673,0.00063659,9.847e-05,0.0,0 STARLINK-5269,1 54161U 22141E   23338.79443090  .00009847  00000-0  63659-3 0  9992,2 54161  53.2176 121.8140 0001645 100.9505 259.1673 15.08801599 61035,6917.998,95.44,541.001,538.725,0.0
54161.0,STARLINK-5269,PAYLOAD,2023-12-05 09:22:26,15.08837453,0.0001419,53.2178,119.1382,91.5426,268.5729,0.00016522,2.342e-05,0.0,0 STARLINK-5269,1 54161U 22141E   23339.39058414  .00002342  00000-0  16522-3 0  9991,2 54161  53.2178 119.1382 0001419  91.5426 268.5729 15.08837453 61125,6917.888,95.438,540.735,538.772,0.0
54161.0,STARLINK-5269,PAYLOAD,2023-12-07 12:14:47,15.08838058,0.0001401,53.2188,109.6236,92.9952,267.1201,1.9029e-05,1.5e-07,0.0,0 STARLINK-5269,1 54161U 22141E   23341.51026674  .00000015  00000-0  19029-4 0  9992,2 54161  53.2188 109.6236 0001401  92.9952 267.1201 15.08838058 61445,6917.886,95.438,540.721,538.782,0.0
54161.0,STARLINK-5269,PAYLOAD,2023-12-08 13:40:57,15.08838185,0.0001305,53.2172,104.8651,96.7133,263.4008,3.2751e-05,2.33e-06,0.0,0 STARLINK-5269,1 54161U 22141E   23342.57010559  .00000233  00000-0  32751-4 0  9993,2 54161  53.2172 104.8651 0001305  96.7133 263.4008 15.08838185 61605,6917.886,95.438,540.654,538.848,0.0
54161.0,STARLINK-5269,PAYLOAD,2023-12-08 18:27:06,15.08841128,0.0001224,53.2175,103.9731,91.5558,268.5574,6.1022e-05,6.83e-06,0.0,0 STARLINK-5269,1 54161U 22141E   23342.76882292  .00000683  00000-0  61022-4 0  9997,2 54161  53.2175 103.9731 0001224  91.5558 268.5574 15.08841128 61639,6917.877,95.437,540.589,538.895,0.0
54161.0,STARLINK-5269,PAYLOAD,2023-12-08 20:02:29,15.08841559,0.000122,53.2174,103.6754,91.1794,268.9338,6.3517e-05,7.23e-06,0.0,0 STARLINK-5269,1 54161U 22141E   23342.83506247  .00000723  00000-0  63517-4 0  9994,2 54161  53.2174 103.6754 0001220  91.1794 268.9338 15.08841559 61645,6917.876,95.437,540.585,538.897,0.0
54161.0,STARLINK-5269,PAYLOAD,2023-12-09 11:56:21,15.08836451,0.0001239,53.2175,100.7021,93.9866,266.1268,1.7777e-05,-5e-08,0.0,0 STARLINK-5269,1 54161U 22141E   23343.49746894 -.00000005  00000-0  17777-4 0  9992,2 54161  53.2175 100.7021 0001239  93.9866 266.1268 15.08836451 61749,6917.891,95.438,540.613,538.899,0.0
